STARLINK-35485          
1 66251U 25245T   26068.85730775  .00042204  00000+0  14295-2 0  9996
2 66251  53.1586 283.0093 0001090 152.8442 207.2616 15.30187722 21060
2025-313BC              
1 67298U 25313BC  26068.18968176  .00075331  00000+0  26410-2 0  9997
2 67298  97.3985 144.8110 0008478 328.9209  31.1528 15.29126358  7890
